{"type": "FeatureCollection", "features": [{"type": "Feature", "geometry": {"type": "Point", "coordinates": [-111.652901, 33.354696]}, "properties": {"jurisdiction": "Mesa", "state": "AZ", "permit_number": "PMT24-15428", "best_date": "2025-12-03", "valuation": 1650.0, "dc_tier": "confirmed", "dc_score": 115.0, "dc_operator": "EdgeConneX", "dc_role": "power_infrastructure", "description": "THIS IS A USE PERMIT FOR A TEMPORARY CONSTRUCTION FIELD OFFICE FOR USE BY THE STAFF AND FOR ON-SITE MEETINGS. THE CONSTRUCTION TRAILER MUST BE PLACED ONLY ON THE PROPERTY THAT IS BEING DEVELOPED AND OUT OF ALL BUILDING SETBACKS. NO PUBLIC USE IS PERMITTED. THIS USE PERMIT SHALL BE NON-TRANSFERABLE FROM ONE OWNER OR LESSEE TO ANOTHER AND SHALL EXPIRE ON DECEMBER 31, OF EACH YEAR UNLESS EARLIER REVOKED. ESTIMATED TIME OF CONSTRUCTION TRAILER REMOVAL *12/31/2025.PERMIT INCLUDES TEMPORARY GENERATOR. REF - BUILDING PERMIT #: PMT23-19121, PMT23-19122, PMT24-11896, PMT24-13614. EDGECONNEX DATA CENTER FACILITY."}}, {"type": "Feature", "geometry": {"type": "Point", "coordinates": [-111.618781, 33.344193]}, "properties": {"jurisdiction": "Mesa", "state": "AZ", "permit_number": "PMT24-20204", "best_date": "2025-06-09", "valuation": 569495023.35, "dc_tier": "confirmed", "dc_score": 110.5, "dc_operator": null, "dc_role": "expansion", "description": "Tenant improvement in existing 868,431sf 3-story addition for a data center., IB construction, B/ S-1/ S-2 Occupancy. First, second, and third floor build out and installation of electrical, mechanical, and plumbing equipment. Special inspection for fire caulking and emergency responder radio coverage. Deferred fire sprinklers and fire alarms. \u2022 1st floor buildout includes support spaces, and 2 data hall \u2022 2nd floor buildout includes storage, office, support spaces, and a data hall \u2022 3rd floor buildout includes support spaces and a data hall \u2022 Install of electrical mechanical and plumbing equip Special inspection req. - Steel, concrete, soils, deep foundations, spray fire resistance material, Mastic & intumescent coating, smoke control. REF: PMT23-18893 Civil, PMT23-19680 Foundation, PMT23-20558 Shell + TKD Phase 1, PMT24-13760 TKD Phase 2. Results in CoC."}}, {"type": "Feature", "geometry": {"type": "Point", "coordinates": [-111.618781, 33.344193]}, "properties": {"jurisdiction": "Mesa", "state": "AZ", "permit_number": "PMT24-19524", "best_date": "2025-04-15", "valuation": 294884823.73, "dc_tier": "confirmed", "dc_score": 104.5, "dc_operator": null, "dc_role": "fitout", "description": "Tenant improvement for existing (2) story 490,782 SF shell space data center, Group B/S-1/S-2 occupancy, Type I-B Construction. Modifications of existing 1st level warehouse into 3 data halls. Special inspection req. - Steel, concrete, soils, deep foundations, spray fire resistance material, fire caulking, Mastic & intumescent coating, smoke control. REF: PMT24-02625 Civil, PMT24-09780 Shell, PMT24-11335 Phase 1. Results in CoO at completion of all phases. Result in TCO. Phasing plan."}}, {"type": "Feature", "geometry": {"type": "Point", "coordinates": [-111.608239, 33.292231]}, "properties": {"jurisdiction": "Mesa", "state": "AZ", "permit_number": "PMT24-15709", "best_date": "2025-03-25", "valuation": 59753691.36, "dc_tier": "confirmed", "dc_score": 101.5, "dc_operator": null, "dc_role": "new_build", "description": "Development of 229,416 SF, Type II-B construction, group B occupancy single story data center. The development building is designed with tilt wall construction and contains 94,951 square feet of data hall space and 9,512 square feet of office space located centrally between south and north data hall spaces. The building will have supported chiller cooling platforms on south and north side of the buildings. A NEW DATA CENTER BUILDING. WORK INCLUDES CONSTRUCTION OF NEW EXTERIOR AND INTERIOR PARTITIONS, CEILINGS, FINISHES, MECHANICAL, ELECTRICAL, PLUMBING & FIRE PROTECTION AS INDICATED ON DRAWINGS. DEFERRED FIRE SPRINKLERS. DEFERRED FIRE ALARM. DEFERRED DATA HALL RACKING SYSTEM. DEFERRED GENERATOR PLATFORM AND STAIRS. SPECIAL INSPECTIONS REQUIRED - EMERGENCY RESPONDER RADIO COVERAGE IFC 510, Concrete, Steel, Soils, Open-we Steel Joist and girders, post-installed anchoring and bolting Fire pump house by separate permit. Water Meters: (2) 2-inch Domestic and (1) 2-inch Landscape. Ref PMT24-15751 for site improvements. Results in CoC. Forthcoming TCO for phases. CoO will be provided at project completion. Landscape meters is 10464 E PECOS RD LD1. Code modification for refrigerants: PMT25-18602"}}, {"type": "Feature", "geometry": {"type": "Point", "coordinates": [-111.618781, 33.344193]}, "properties": {"jurisdiction": "Mesa", "state": "AZ", "permit_number": "PMT23-20558", "best_date": "2024-03-28", "valuation": 171779424.64, "dc_tier": "confirmed", "dc_score": 96.0, "dc_operator": null, "dc_role": "expansion", "description": "New 868,431sf 3-story addition for a data center. IB construction. B/ S-1/ S-2 Occupancy. Special inspection required for fabricator, steel, concrete, foundation, anchoring. 2-2\" domestic meters install with this permit, related to site improvement permit PMT23-18893, and foundation permit PMT23-19380. Special inspection for fire caulking. Deferred fire sprinklers and fire alarms/VESDA. Results in CoC."}}, {"type": "Feature", "geometry": {"type": "Point", "coordinates": [-111.652901, 33.354696]}, "properties": {"jurisdiction": "Mesa", "state": "AZ", "permit_number": "PMT25-09255", "best_date": "2025-08-06", "valuation": 73214120.12, "dc_tier": "confirmed", "dc_score": 87.0, "dc_operator": null, "dc_role": "expansion", "description": "Phase 3 TI, North 2 interior data halls. The work will involve installation of interior walls, MEPs, generators, distribution switchgear, chillers, CRACs, and chiller piping. S-1 occupancy only 180108sf. Special inspections for fire rated assemblies, and structural items. (PMT24-11896 shell, Code Mod PMT25-11515). The equipment with batteries is not within the scope of this permit. CofO required. Deferred fire sprinklers and fire alarm."}}, {"type": "Feature", "geometry": {"type": "Point", "coordinates": [-111.626771, 33.355691]}, "properties": {"jurisdiction": "Mesa", "state": "AZ", "permit_number": "PMT25-13240", "best_date": "2025-12-30", "valuation": 27892886.68, "dc_tier": "confirmed", "dc_score": 85.5, "dc_operator": null, "dc_role": "new_build", "description": "Shell data hall building 1, construction type II-B, two story 243,332 SF total building. Building shell includes precast wall panels, insulated metal panel and curtain wall window units. The building will function as a data center and adjacent office, storage and loading dock. Partial interior data hall fit out including interior partitions, ceilings, flooring, lighting, mechanical, electrical, plumbing and fire protection systems. Data hall fit out, and admin area completion will receive CoO under PMT25-22845. New 8-inch water meter. Special inspection for structural, electrical at 1000 AMPS or more, fire rated assemblies, Emergency Responder Radio Coverage, and EIFS. Civil and landscaping plans under PMT25-11012. Deferred fire sprinklers, fire alarm, access control, platform railings, vehicle gate access and lighting protection. Results in CoC."}}, {"type": "Feature", "geometry": {"type": "Point", "coordinates": [-111.612275, 33.35516]}, "properties": {"jurisdiction": "Mesa", "state": "AZ", "permit_number": "PMT22-17409", "best_date": "2023-05-08", "valuation": 33760326.2, "dc_tier": "confirmed", "dc_score": 85.5, "dc_operator": null, "dc_role": "other", "description": "New 202,290 SF data hall with 33260 SF of offices for the construction of the PH2 Data Center facility for NTT, owner. The PH2 data center facility is the second data center on the NTT campus. Please refer to PMT22-15602 for the Underground and Foundation submission material for the PH2 facility. DEFERRED FIRE SPRINKLERS. DEFERRED FIRE ALARM. DEFERRED ELECTRIC VEHICLE GATES. SPECIAL INSPECTION REQ'D IFC 510 RADIO COVERAGE. No new meters. Emergency radio system: PMT24-08110"}}, {"type": "Feature", "geometry": {"type": "Point", "coordinates": [-111.618781, 33.344193]}, "properties": {"jurisdiction": "Mesa", "state": "AZ", "permit_number": "PMT24-03228", "best_date": "2024-05-08", "valuation": 84593566.19, "dc_tier": "confirmed", "dc_score": 84.0, "dc_operator": null, "dc_role": "new_build", "description": "Foundation and under-slab utility permit for a new data center. Building under separate permit. Civil under PMT24-02625."}}, {"type": "Feature", "geometry": {"type": "Point", "coordinates": [-111.678122, 33.350771]}, "properties": {"jurisdiction": "Mesa", "state": "AZ", "permit_number": "PMT23-13926", "best_date": "2023-11-09", "valuation": 72652758.8, "dc_tier": "confirmed", "dc_score": 84.0, "dc_operator": null, "dc_role": "new_build", "description": "New ground up data center with electrical yard, mechanical yard, six pump houses and a pump house pharmacy, two electrical buildings with associated platform/decks, trestle conveying MEP, chillers. Site entrance guard booth. Perimeter walls. The pumphouse and pumphouse with pharmacy will be PEMBs. Occupancy classifications, B, S-2, F-1, construction type II-B, unlimited area. Special inspections for fire caulking, emergency response radio coverage, steel, fabricators, concrete, masonry, soils, driven deep foundation, post installed anchors, cold form metal framing, and architectural precast wall panels. Deferred submittals: fire sprinklers, fire alarms, structural steel connections; cold form studs & Unistrut framing; pipes slides, guides & anchors; steel stairs & stair landing; specialty equipment skids & anchorage; makeup water tank and foundation. Install Emergency Responder Radio System. Code MOD: PMT23-18216. Three new 3-phase electric meters. HOLD CofO for completion and acceptance of PMT23-12030 and ROW dedication of Elliot Rd. and Sossaman Rd."}}, {"type": "Feature", "geometry": {"type": "Point", "coordinates": [-87.66597033174237, 41.84083718176195]}, "properties": {"jurisdiction": "Chicago", "state": "IL", "permit_number": "100989382", "best_date": "2023-01-06", "valuation": 25500000.0, "dc_tier": "confirmed", "dc_score": 83.5, "dc_operator": null, "dc_role": "power_infrastructure", "description": "DDS 2019 CBC: INTERIOR & EXTERIOR ALTERATIONS TO EXISTING 2-STORY DATA CENTER BUILDING. INTERIOR ALTERATION FOR DEPLOYMENT OF ELECTRICAL & MECHANICAL EQUIPMENT TO SUPPORT TENANTS WITHIN DATA HALLS 2 & 3 ON 1ST & 2ND FLOORS & ROOF. EXTERIOR SITE WORK FOR NEW GENERATOR FOUNDATION WITH FOUR (4) NEW GENERATORS. THREE (3) NEW GENERATORS INSTALLED ON EXISTING GENERATOR FOUNDATION AT THE SOUTH GENERATOR YARD. ONE (1) NEW GENERATOR INSTALLED ON EXISTING GENERATOR FOUNDATION AT THE NORTHEAST SIDE OF BUILDING, MECHANICAL UNIT STEEL PLATFORMS & EXTERIOR METAL STAIR AT THE WEST SIDE OF BUILDING AS PER PLANS. (OCCUPANCY GROUP B; TYPE IIA CONSTRUCTION) CONSULTANT REVIEWER: THE CODE GROUP"}}, {"type": "Feature", "geometry": {"type": "Point", "coordinates": [-111.618781, 33.344193]}, "properties": {"jurisdiction": "Mesa", "state": "AZ", "permit_number": "PMT22-09732", "best_date": "2023-02-06", "valuation": 46502830.72, "dc_tier": "confirmed", "dc_score": 82.0, "dc_operator": null, "dc_role": "fitout", "description": "LEVEL 1: PROPOSED NEW EQUIPMENT ON EXISTING PLATFORM. PROPOSED TWO DATA HALLS AND CRAH GALLERIES WITH MECHANICAL AND ELECTRICAL EQUIPMENT. LEVEL 2: NO WORK ON THIS LEVEL. ROOF: PROPOSED NEW EQUIPMENT ON EXISTING PLATFORM. Deferred fire sprinklers and fire alarms."}}, {"type": "Feature", "geometry": {"type": "Point", "coordinates": [-111.618781, 33.344193]}, "properties": {"jurisdiction": "Mesa", "state": "AZ", "permit_number": "PMT24-04714", "best_date": "2024-07-01", "valuation": 47169705.96, "dc_tier": "confirmed", "dc_score": 81.5, "dc_operator": null, "dc_role": "fitout", "description": "Tenant improvement of portion of data center building to built-out the office spaces, conference room, and break-room. Deferred fire sprinklers and fire alarms. Refer to PMT24-11121: Code modification for 2018 IPC 403.1.1 regarding the reduction of plumbing fixtures in a Data Hall, Group B/ S occupancy. See approval letter for details."}}, {"type": "Feature", "geometry": {"type": "Point", "coordinates": [-111.678122, 33.350771]}, "properties": {"jurisdiction": "Mesa", "state": "AZ", "permit_number": "PMT23-07125", "best_date": "2023-07-31", "valuation": null, "dc_tier": "confirmed", "dc_score": 81.0, "dc_operator": null, "dc_role": "power_infrastructure", "description": "THIS IS A USE PERMIT FOR A TEMPORARY CONSTRUCTION FIELD OFFICE FOR USE BY CONTRACTORS WHILE A PERMANENT BUILDING IS UNDER CONSTRUCTION. SIX CONSTRUCTION TRAILERS AND ONE MEDICAL TRAILER. THE CONSTRUCTION TRAILER MUST BE PLACED ONLY ON THE PROPERTY THAT IS BEING DEVELOPED AND OUT OF ALL BUILDING SETBACKS. NO PUBLIC USE IS PERMITTED. THIS USE PERMIT SHALL BE NON-TRANSFERABLE FROM ONE OWNER OR LESSEE TO ANOTHER AND SHALL EXPIRE ON DECEMBER 31, OF EACH YEAR UNLESS EARLIER REVOKED. ESTIMATED TIME OF CONSTRUCTION TRAILER REMOVAL **DECEMBER 2023**. GENERATOR WILL BE USED FOR POWER. * * * * *DYNALECTRIC - EAST MESA 80MW DATA CENTER* * * * * *"}}, {"type": "Feature", "geometry": {"type": "Point", "coordinates": [-111.612275, 33.35516]}, "properties": {"jurisdiction": "Mesa", "state": "AZ", "permit_number": "PMT24-17530", "best_date": "2025-02-10", "valuation": 33408765.06, "dc_tier": "confirmed", "dc_score": 78.0, "dc_operator": null, "dc_role": "other", "description": "Building #3. New 225,606 sf 2-story data center. IIB construction. B/ S-1 occupancies. Unlimited building with 60ft min. yards. Special inspections required for fabricator, steel, concrete, soil, fire caulking and emergency responder radio coverage. New 2\" domestic water meter, and new 1\" landscape meter. Deferred fire sprinklers and fire alarms. Results in CoO."}}, {"type": "Feature", "geometry": {"type": "Point", "coordinates": [-111.678122, 33.350771]}, "properties": {"jurisdiction": "Mesa", "state": "AZ", "permit_number": "PMT24-07723", "best_date": "2025-02-05", "valuation": 30026772.3, "dc_tier": "confirmed", "dc_score": 78.0, "dc_operator": null, "dc_role": "new_build", "description": "EXPEDITE - Foundation and underground/slab utilities only for new Data Center. Special inspections required for steel, fabricators, concrete, soils, driven deep foundations. Aerial apparatus access code modification: PMT24-12147."}}, {"type": "Feature", "geometry": {"type": "Point", "coordinates": [-111.612275, 33.35516]}, "properties": {"jurisdiction": "Mesa", "state": "AZ", "permit_number": "PMT22-19910", "best_date": "2024-12-02", "valuation": 33687154.2, "dc_tier": "confirmed", "dc_score": 78.0, "dc_operator": null, "dc_role": "other", "description": "New 235,550 SF shell PH3 Data Center facility for NTT, owner. See PMT22-15608 for the Underground and Foundation for the PH3 facility. Deferred fire sprinklers and fire alarms. Special Inspections for emergency response radio coverage and fire line plush test."}}, {"type": "Feature", "geometry": {"type": "Point", "coordinates": [-111.612275, 33.35516]}, "properties": {"jurisdiction": "Mesa", "state": "AZ", "permit_number": "PMT24-07027", "best_date": "2024-09-19", "valuation": 33143923.38, "dc_tier": "confirmed", "dc_score": 78.0, "dc_operator": null, "dc_role": "other", "description": "Building #4. New 225,606 sf 2-story data center. IIB construction. B/ S-1 occupancies. Unlimited building with 60ft min. yards. Special inspections required for fabricator, steel, concrete, soil. New 2\" domestic water meter, and new 1\" landscape meter. DEFERRED FIRE SPRINKLERS. DEFERRED FIRE ALARM. SPECIAL INSPECTION REQ'D IFC 510 RADIO COVERAGE. Related, prewire Emergency radio system: PMT24-08110. Result CoO."}}, {"type": "Feature", "geometry": {"type": "Point", "coordinates": [-111.612275, 33.35516]}, "properties": {"jurisdiction": "Mesa", "state": "AZ", "permit_number": "PMT22-15608", "best_date": "2024-04-14", "valuation": 33760326.2, "dc_tier": "confirmed", "dc_score": 78.0, "dc_operator": null, "dc_role": "other", "description": "New 235550 SF data center. This permit is for the underground & foundation for the PH3 data center facility. Special inspections are expected to be required for soils, concrete."}}, {"type": "Feature", "geometry": {"type": "Point", "coordinates": [-111.612275, 33.35516]}, "properties": {"jurisdiction": "Mesa", "state": "AZ", "permit_number": "PMT22-15602", "best_date": "2022-12-01", "valuation": 33760326.2, "dc_tier": "confirmed", "dc_score": 78.0, "dc_operator": null, "dc_role": "other", "description": "New 235,550 SF data center's foundation and underground work. Special inspections anticipated required for soils, concrete. Includes the 1\" landscape water meter and 2\" domestic meter. Special Inspections for Emergency Response Radio Coverage. Deferred fire sprinklers and fire alarms."}}, {"type": "Feature", "geometry": {"type": "Point", "coordinates": [-87.66597033174237, 41.84083718176195]}, "properties": {"jurisdiction": "Chicago", "state": "IL", "permit_number": "101038603", "best_date": "2024-03-05", "valuation": 800000.0, "dc_tier": "confirmed", "dc_score": 77.5, "dc_operator": null, "dc_role": "power_infrastructure", "description": "DDS 2019 CBC: INTERIOR AND EXTERIOR ALTERATIONS TO EXISTING 2-STORY DATA CENTER BUILDING. INTERIOR BUILDOUT AND DEPLOYMENT OF ELECTRICAL AND MECHANICAL EQUIPMENT IN DATA HALL 3 ON THE 1ST FLOOR, 2ND FLOOR AND ROOF. EXTERIOR SITE WORK FOR TWO (2) NEW GENERATORS AS PER PLANS. (OCCUPANCY GROUP B; TYPE IIA CONSTRUCTION) CONSULTANT REVIEWER: THE CODE GROUP"}}, {"type": "Feature", "geometry": {"type": "Point", "coordinates": [-87.61862204741678, 41.85311814898232]}, "properties": {"jurisdiction": "Chicago", "state": "IL", "permit_number": "101036937", "best_date": "2024-03-13", "valuation": 12500000.0, "dc_tier": "confirmed", "dc_score": 76.0, "dc_operator": null, "dc_role": "power_infrastructure", "description": "SPR 2019 CBRC: INTERIOR AND EXTERIOR ALTERATIONS TO EXISTING 3RD FLOOR DATA CENTER TO INCLUDE DEMO, NEW PARTITIONS, STRUCTURAL, ELECTRICAL AND MECHANICAL WORK. EXTERIOR WORK TO INCLUDE THE REMOVAL AND REPLACEMENT OF AN EMERGENCY GENERATOR WITH A NEW BELLY TANK AT EXISTING OUTDOOR GENERATOR YARD AT GRADE AS PER PLANS. S-2 STORAGE, B-BUSINESS. 1B CONSTRUCTION (CONDITIONAL PERMIT SUBJECT TO FIELD INSPECTIONS)"}}, {"type": "Feature", "geometry": {"type": "Point", "coordinates": [-111.601334, 33.347338]}, "properties": {"jurisdiction": "Mesa", "state": "AZ", "permit_number": "PMT22-03129", "best_date": "2022-10-15", "valuation": 28000000.0, "dc_tier": "confirmed", "dc_score": 76.0, "dc_operator": null, "dc_role": "expansion", "description": "Tenant Improvement - Data center expansion to the current permit PMT21-09173. Expansion includes fit-out of existing space and installation of electrical and mechanical equipment, including the plumbing and electrical connections as necessary. Deferred fire sprinklers, fire alarm and generators."}}, {"type": "Feature", "geometry": {"type": "Point", "coordinates": [-87.64070114060304, 41.86262022335638]}, "properties": {"jurisdiction": "Chicago", "state": "IL", "permit_number": "101074945", "best_date": "2026-01-21", "valuation": 1444050.0, "dc_tier": "confirmed", "dc_score": 75.0, "dc_operator": null, "dc_role": "fitout", "description": "DDS / 2019 CBRC: REVISION TO PERMIT 101063390 FOR MODIFICATIONS TO THE MECHANICAL SYSTEM (LIQUID COOLING SYSTEM ON LEVEL 2 OF AN EXISTING FOUR (4) STORY DATA CENTER AS PER PLANS.(OCCUPANCY GROUP: B / CONSTRUCTION CLASSIFICATION: 1B) CONSULTANT REVIEWER: GLOBETROTTERS ENGINEERING"}}, {"type": "Feature", "geometry": {"type": "Point", "coordinates": [-87.63344780864057, 41.87296747271569]}, "properties": {"jurisdiction": "Chicago", "state": "IL", "permit_number": "101079611", "best_date": "2026-06-16", "valuation": 3000000.0, "dc_tier": "confirmed", "dc_score": 74.0, "dc_operator": null, "dc_role": "fitout", "description": "DDS 2019 CBC: INTERIOR ALTERATIONS TO EXISTING 6TH FLOOR DATA CENTER (INCLUDES REPLACEMENT OF 5 EXISTING AHUS WITH 6 NEW CRAH UNITS, NEW AIR COOLED CHILLERS ON THE ROOF, ROOF MODIFICATION TO ACCOMODATE NEW UNITS & NEW GUARD RAIL AND GRATING SURROUNDING THE UNITS) (OCCUPANY GROUP B & S-1. TYPE IA CONSTRUCTION) CONSULTANT REVIEWER: V3 COMPANIES OF IL"}}, {"type": "Feature", "geometry": {"type": "Point", "coordinates": [-97.66937156, 30.26752153]}, "properties": {"jurisdiction": "Austin", "state": "TX", "permit_number": "2024-151690 BP", "best_date": "2024-12-10", "valuation": null, "dc_tier": "confirmed", "dc_score": 74.0, "dc_operator": null, "dc_role": "fitout", "description": "Interior remodel existing data center- install CRAH units upper floor"}}, {"type": "Feature", "geometry": {"type": "Point", "coordinates": [-97.66937156, 30.26752153]}, "properties": {"jurisdiction": "Austin", "state": "TX", "permit_number": "2024-151689 BP", "best_date": "2024-12-10", "valuation": null, "dc_tier": "confirmed", "dc_score": 74.0, "dc_operator": null, "dc_role": "fitout", "description": "Interior remodel existing data center- install CRAH units lower floor"}}, {"type": "Feature", "geometry": {"type": "Point", "coordinates": [-111.652901, 33.354696]}, "properties": {"jurisdiction": "Mesa", "state": "AZ", "permit_number": "PMT24-11896", "best_date": "2024-09-16", "valuation": 56828358.06, "dc_tier": "confirmed", "dc_score": 74.0, "dc_operator": null, "dc_role": "new_build", "description": "Core and shell building constructed of structural steel columns, beams and framing, precast concrete sandwich wall panels with precast concrete double tee roof structure, metal panels & glazed curtainwall. Phase 2 will contain two levels of office and storage space, a loading dock, two shell data hall wings with associated support spaces, and some infrastructure for phase 3-4 back up power generation plants. Occupancy classifications B and S-2, construction type II-B, unlimited area building. B occupancy 37,384 sf. S-2 Occupancy 374,547 sf. 134 sf Security building (guard house included, occupancy classification B, construction type II-B. Special inspections for emergency responder radio coverage and fire caulking. Access control by separate submittal. Deferred fire sprinklers and fire alarms. Two new 3-phase electric meters. Special inspections are required for fabricators, steel, concrete, masonry, epoxy/expansion anchors, sprayed fire-resistant materials, mastic and intumescent fire-resistant coatings, EIFS. New 2-2-inch domestic water meters. Landscape water meter is under PMT23-19121."}}, {"type": "Feature", "geometry": {"type": "Point", "coordinates": [-87.64070114060304, 41.86262022335638]}, "properties": {"jurisdiction": "Chicago", "state": "IL", "permit_number": "101003132", "best_date": "2023-09-22", "valuation": 2000000.0, "dc_tier": "confirmed", "dc_score": 74.0, "dc_operator": null, "dc_role": "power_infrastructure", "description": "(DIRECT DEVELOPER SERVICES) EXTERIOR ALTERATIONS TO EXISTING FOUR (4) STORY DATA CENTER TO INCLUDE INSTALLATION OF FOUR (4) NEW DIESEL GENERATORS ON LEVEL 2 AND NEW CHILLER / COOLING TOWER AND ASSOCIATED ANCILLARY SUPPORT FRAMING ON LEVELS 3 & 4 AS PER PLANS. (OCCUPANCY CLASSIFICATION: B / CONSTRUCTION CLASSIFICATION: 1B) CONSULTANT REVIEWER: GLOBETROTTERS ENGINEERING"}}, {"type": "Feature", "geometry": {"type": "Point", "coordinates": [-111.618781, 33.344193]}, "properties": {"jurisdiction": "Mesa", "state": "AZ", "permit_number": "PMT25-01071", "best_date": "2025-06-10", "valuation": 10000000.0, "dc_tier": "confirmed", "dc_score": 73.5, "dc_operator": null, "dc_role": "expansion", "description": "Tenant improvement for existing (2) story 490,782 SF shell space data center, Group B/S-1/S-2 occupancy, Type I-B Construction. Modifications of existing 2nd level warehouse (3) data halls and in addition, office and storage spaces of administrative area of building will be fit out to meet tenant requirements on both 1st and 2nd level and consist of architectural, structural, electrical, mechanical, plumbing. The approximate total area within the scope of work is 142,041 square feet. Deferred fire sprinkler and fire alarm. Special Inspection required for fire-resistant penetration and joints, concrete, steel and anchors. REF: shell PMT24-09780, and Phase 1 PMT24-113354, and Phase 3 PMT24-19524. Results CoO at completion of all phases. Result in TCO. Phasing plan."}}, {"type": "Feature", "geometry": {"type": "Point", "coordinates": [-87.66597033174237, 41.84083718176195]}, "properties": {"jurisdiction": "Chicago", "state": "IL", "permit_number": "100994175", "best_date": "2022-11-22", "valuation": 11000000.0, "dc_tier": "confirmed", "dc_score": 73.5, "dc_operator": null, "dc_role": "fitout", "description": "DDS 2019 CBC: INTERIOR AND EXTERIOR ALTERATIONS TO EXISTING 2-STORY DATA CENTER BUILDING. INTERIOR UPGRADE OF ELECTRICAL AND MECHANICAL EQUIPMENT IN DATA HALL 1 AND EXTERIOR SITE STRUCTURAL INFRASTRUCTURE TO SUPPORT NEW MECHCANICAL UNITS AS PER PLANS. (OCCUPANCY GROUP B; TYPE IIA CONSTRUCTION) CONSULTANT REVIEWER: THE CODE GROUP"}}, {"type": "Feature", "geometry": {"type": "Point", "coordinates": [-111.618781, 33.344193]}, "properties": {"jurisdiction": "Mesa", "state": "AZ", "permit_number": "PMT25-06684", "best_date": "2025-07-24", "valuation": 10000000.0, "dc_tier": "confirmed", "dc_score": 72.0, "dc_operator": null, "dc_role": "fitout", "description": "Tenant fitout of Tower2, approx 120,540 SF (3-storey) within existing Edgecore PH02 building, type I-B construction, group B, S-1 and S-2 occupancy. Tenant improvement include technology and electrical fitout of (3) 8MW data halls and tenant office and storage spaces. Special inspection req. - concrete, fire-resistant & joints, post installed anchors. Deferred fire sprinklers and fire alarm. REF: PMT24-16768 - PH02 Tower1 TFO, PMT23-20558 PH02-Phase1 Shell PMT24-13760 PH02-Phase2 Shell, PMT24-20204 PH02-Phase3 Shell. Results CoO at completion of all phases. Phasing plan."}}, {"type": "Feature", "geometry": {"type": "Point", "coordinates": [-111.618781, 33.344193]}, "properties": {"jurisdiction": "Mesa", "state": "AZ", "permit_number": "PMT24-16768", "best_date": "2025-07-01", "valuation": 10000000.0, "dc_tier": "confirmed", "dc_score": 72.0, "dc_operator": null, "dc_role": "fitout", "description": "Tenant fitout of Tower1, approx 132,925 SF (3-storey) within existing Edgecore PH02 building, type I-B construction, group B, S-1 and S-2 occupancy. Tenant improvement include technology and electrical fitout of (3) 8MW data halls and tenant office and storage spaces. DEFERRED FIRE SPRINKLERS. DEFERRED FIRE ALARM. Special inspection for fire caulking. REF: PMT25-06684 for Tower2 TFO, PMT23-20558 PH02-Phase1 Shell PMT24-13760 PH02-Phase2 Shell, PMT24-20204 PH02-Phase3 Shell. Results CoO at completion of all phases. Result in TCO. Phasing plan."}}, {"type": "Feature", "geometry": {"type": "Point", "coordinates": [-111.635394, 33.3454]}, "properties": {"jurisdiction": "Mesa", "state": "AZ", "permit_number": "PMT22-07611", "best_date": "2024-05-20", "valuation": null, "dc_tier": "confirmed", "dc_score": 72.0, "dc_operator": null, "dc_role": "new_build", "description": "Sitework for three new data center buildings and associated administration buildings within the existing data center campus in Mesa, AZ. These buildings are referred to as Buildings 5, 6 and 3F. The existing campus (under construction) consists of two data center buildings and administration building, two entry guardhouses, and an electrical substation permitted under PMT21-11088. Landscaping to be included with new construction of buildings permit submittal."}}, {"type": "Feature", "geometry": {"type": "Point", "coordinates": [-87.61862204741678, 41.85311814898232]}, "properties": {"jurisdiction": "Chicago", "state": "IL", "permit_number": "101081831", "best_date": "2026-08-05", "valuation": 8400000.0, "dc_tier": "confirmed", "dc_score": 70.0, "dc_operator": null, "dc_role": "fitout", "description": "SPR 2019 CBRC: TENANT IMPROVEMENT TO REMODEL ELECTRICAL ROOMS AND SUPPORT SPACES ON THE 6TH FLOOR SUITES S600A & S600B OF AN EXISTING DATA CENTER. WORK TO INCLUDE UPDATES TO THE MECHANICAL, ELECTRICAL, FIRE PROTECTION AND OTHER AFFECTED SYSTEMS. EXTERIOR WORK IS LIMITED TO THE REMOVAL AND REPLACEMENT OF ROOFTOP MECHANICAL EQUIPMENT WITH A CHILLED WATER SYSTEM. NO CHANGE IN OCCUPANCY OR USE. ( B-BUSINESS. 1B CONSTRUCTION)"}}, {"type": "Feature", "geometry": {"type": "Point", "coordinates": [-87.61862204741678, 41.85311814898232]}, "properties": {"jurisdiction": "Chicago", "state": "IL", "permit_number": "101046027", "best_date": "2024-11-05", "valuation": 5300000.0, "dc_tier": "confirmed", "dc_score": 70.0, "dc_operator": null, "dc_role": "power_infrastructure", "description": "SPR 2019 CBRC: INTERIOR ALTERATIONS TO EXISTING 2ND FLOOR DATA CENTER TO INCLUDE DEMO, STRUCTURAL, ELECTRICAL AND MECHANICAL WORK. WORK TO INCLUDE THE REMOVAL AND REPLACEMENT OF THREE EMERGENCY GENERATORS. S-2 STORAGE, B-BUSINESS, 1B CONSTRUCTION"}}, {"type": "Feature", "geometry": {"type": "Point", "coordinates": [-111.642492, 33.333498]}, "properties": {"jurisdiction": "Mesa", "state": "AZ", "permit_number": "PMT24-12942", "best_date": "2024-08-07", "valuation": 12000.0, "dc_tier": "confirmed", "dc_score": 70.0, "dc_operator": null, "dc_role": "power_infrastructure", "description": "THIS IS A USE PERMIT FOR A TEMPORARY CONSTRUCTION FIELD OFFICE FOR USE BY CONTRACTORS WHILE A PERMANENT BUILDING IS UNDER CONSTRUCTION. THE CONSTRUCTION TRAILER MUST BE PLACED ONLY ON THE PROPERTY THAT IS BEING DEVELOPED AND OUT OF ALL BUILDING SETBACKS. NO PUBLIC USE IS PERMITTED. THIS USE PERMIT SHALL BE NON-TRANSFERABLE FROM ONE OWNER OR LESSEE TO ANOTHER AND SHALL EXPIRE ON DECEMBER 31, OF EACH YEAR UNLESS EARLIER REVOKED. ESTIMATED TIME OF CONSTRUCTION TRAILER REMOVAL DECEMBER 2025. GENERATOR TO RUN 24 HOURS, 7 DAYS A WEEK. REF - BUILDING PERMIT #: PMT24-13636 * * * * *EDGED DATA CENTER LIFT STATION* * * * *"}}, {"type": "Feature", "geometry": {"type": "Point", "coordinates": [-97.84028225, 30.42020548]}, "properties": {"jurisdiction": "Austin", "state": "TX", "permit_number": "2023-016696 BP", "best_date": "2023-11-02", "valuation": null, "dc_tier": "confirmed", "dc_score": 70.0, "dc_operator": null, "dc_role": "power_infrastructure", "description": "Install new generator for building D data center and install (4) split systems AC units for data center and UPS room."}}, {"type": "Feature", "geometry": {"type": "Point", "coordinates": [-111.678122, 33.350771]}, "properties": {"jurisdiction": "Mesa", "state": "AZ", "permit_number": "PMT24-13995", "best_date": "2024-09-04", "valuation": 200000.0, "dc_tier": "confirmed", "dc_score": 69.0, "dc_operator": null, "dc_role": "other", "description": "Temporary construction site power for MSA2A datacenter."}}, {"type": "Feature", "geometry": {"type": "Point", "coordinates": [-87.62548979238896, 41.846255634979215]}, "properties": {"jurisdiction": "Chicago", "state": "IL", "permit_number": "101074646", "best_date": "2026-02-13", "valuation": 18000000.0, "dc_tier": "confirmed", "dc_score": 66.0, "dc_operator": null, "dc_role": "new_build", "description": "DDS / 2019 CBRC: 2-STORY BUILDING ADDITION TO AN EXISTING 2-STORY BUILDING FOR NEW DATA CENTER, TO INCLUDE AT-GRADE PARKING LOT (29 PARKING SPACES) AND ASSOCIATED SITE WORK AS PER PLANS. (FOUNDATION PERMIT: 101068390) CONSULTANT REVIEWER: V3 COMPANIES OF IL"}}, {"type": "Feature", "geometry": {"type": "Point", "coordinates": [-111.618781, 33.344193]}, "properties": {"jurisdiction": "Mesa", "state": "AZ", "permit_number": "PMT25-11502", "best_date": "2025-10-21", "valuation": 8371866.12, "dc_tier": "confirmed", "dc_score": 66.0, "dc_operator": null, "dc_role": "fitout", "description": "Tenant fitout of Tower3 Sector A, 1st level only, approx 25,396 SF (3-story) within existing Edgecore PH02 building, type I-B construction, group B, S-1 and S-2 occupancy. Modification scope includes fit out of 6 MW data hall space with racks and associated electrical. Special inspection req. - concrete, fire-resistant & joints, post installed anchors. Deferred fire sprinklers and fire alarm. REF: PMT24-16768 - PH02 Tower1 TFO, PMT25-06684 Tower2 TFO, PMT23-20558 PH02-Phase1 Shell PMT24-13760 PH02-Phase2 Shell, PMT24-20204 PH02-Phase3 Shell. Phasing plan. Results CoO at completion of all phases. This permit result in TCO."}}, {"type": "Feature", "geometry": {"type": "Point", "coordinates": [-87.6316021355216, 41.87621600724368]}, "properties": {"jurisdiction": "Chicago", "state": "IL", "permit_number": "101070387", "best_date": "2025-08-19", "valuation": 17854000.0, "dc_tier": "confirmed", "dc_score": 66.0, "dc_operator": null, "dc_role": "fitout", "description": "DDS / 2019 CBRC: INTERIOR ALTERATIONS TO 2ND FLOOR TENANT SPACE (SUITE201) IN AN EXISTING DATA CENTER AS PER PLANS.(OCCUPANCY GROUP: B / TYPE 1A CONSTRUCTION) CONSULTANT REVIEWER: V3 COMPANIES OF IL"}}, {"type": "Feature", "geometry": {"type": "Point", "coordinates": [-87.64070114060304, 41.86262022335638]}, "properties": {"jurisdiction": "Chicago", "state": "IL", "permit_number": "101063390", "best_date": "2025-03-27", "valuation": 20668090.0, "dc_tier": "confirmed", "dc_score": 66.0, "dc_operator": null, "dc_role": "fitout", "description": "DDS / 2019 CBRC: INITIAL TENANT BUILD-OUT OF LEVEL 2 OF AN EXISTING FOUR (4) STORY DATA CENTER TO INCLUDE ELECTRICAL & MECHANICAL INFRASTRUCTURE ON LEVELS 1, 3 & 4 AS PER PLANS. (OCCUPANCY GROUP: B / CONSTRUCTION CLASSIFICATION: 1B) CONSULTANT REVIEWER: GLOBETROTTERS ENGINEERING"}}, {"type": "Feature", "geometry": {"type": "Point", "coordinates": [-111.678122, 33.350771]}, "properties": {"jurisdiction": "Mesa", "state": "AZ", "permit_number": "PMT24-11833", "best_date": "2025-03-12", "valuation": 10985651.92, "dc_tier": "confirmed", "dc_score": 66.0, "dc_operator": null, "dc_role": "other", "description": "The RedHawk HUB is a one-story, office support building serving the RedHawk Data Center campus located at the intersection of Sossaman and Elliot Road, located within the Red Hawk Opportunity District (RHEOD). This permit is for 11,638 SF, Group B occupancy, Type V-B construction office building. New work consists mostly of open office spaces, meeting rooms, and some small amenity spaces such as a Micro Kitchen and Outdoor patio space. Deferred fire sprinklers and fire alarms. No new water meter. No new Electrical meter. results in CoO."}}, {"type": "Feature", "geometry": {"type": "Point", "coordinates": [-87.64070114060304, 41.86262022335638]}, "properties": {"jurisdiction": "Chicago", "state": "IL", "permit_number": "101003044", "best_date": "2023-09-22", "valuation": 18000000.0, "dc_tier": "confirmed", "dc_score": 66.0, "dc_operator": null, "dc_role": "new_build", "description": "(DIRECT DEVELOPER SERVICES) 1ST TIME TENANT BUILD-OUT OF LEVEL 3 OF AN EXISTING FOUR (4) STORY DATA CENTER TO INCLUDE ELECTRICAL INFRASTRUCTURE & WATER STORAGE TANK ON LEVEL 1 AS PER PLANS. (OCCUPANCY CLASSIFICATION: B / CONSTRUCTION CLASSIFICATION: 1B) CONSULTANT REVIEWER: GLOBETROTTERS ENGINEERING"}}, {"type": "Feature", "geometry": {"type": "Point", "coordinates": [-87.63946028564607, 41.870881086303676]}, "properties": {"jurisdiction": "Chicago", "state": "IL", "permit_number": "101010054", "best_date": "2023-06-26", "valuation": 10000000.0, "dc_tier": "confirmed", "dc_score": 66.0, "dc_operator": null, "dc_role": "fitout", "description": "CBRC SPR 2019: INTERIOR ALTERATIONS TO AN EXISTING DATA CENTER AS PER PLANS ON BASEMENT, 1ST, 2ND, 3RD, 4TH, 7TH FLOOR AND ROOF EQUIPMENT REPLACEMENT. STRUCTURAL PEER REVIEW INCLUDED. (OCCUPANCY E / CONSTRUCTION TYPE 1A) **CERTIFIED PLANS CORRECTIONS: CONDITIONAL PERMIT SUBJECT TO FIELD INSPECTIONS **"}}, {"type": "Feature", "geometry": {"type": "Point", "coordinates": [-97.70694568, 30.20002804]}, "properties": {"jurisdiction": "Austin", "state": "TX", "permit_number": "2025-155325 BP", "best_date": "2025-12-18", "valuation": null, "dc_tier": "confirmed", "dc_score": 65.0, "dc_operator": null, "dc_role": "power_infrastructure", "description": "ePlan: Commercial Expedited Review - Finish out to Expand Data Center into existing Shell Areas. Scope of Work Includes 2 AE Transformers. (10000 SF)"}}, {"type": "Feature", "geometry": {"type": "Point", "coordinates": [-118.23534, 34.05937]}, "properties": {"jurisdiction": "Los Angeles", "state": "CA", "permit_number": null, "best_date": "2023-08-28", "valuation": 978000.0, "dc_tier": "confirmed", "dc_score": 63.75, "dc_operator": null, "dc_role": "other", "description": "Supplemental permit for Proposed suspended ceiling system to existing computer room/office data center."}}, {"type": "Feature", "geometry": {"type": "Point", "coordinates": [-87.63191630640748, 41.87680832019603]}, "properties": {"jurisdiction": "Chicago", "state": "IL", "permit_number": "101081181", "best_date": "2026-07-06", "valuation": 51100000.0, "dc_tier": "confirmed", "dc_score": 62.0, "dc_operator": null, "dc_role": "expansion", "description": "DDS 2019 CBRC: PHASE 2 OF 3: INFRASTRUCTURE UPGRADES. CONVERT 7 STORY OFFICE BUILDING TO A DATA CENTER. REINFORCEMENT OF EXISTING FLOORS. ARCHITECTURAL PLANS PROVIDED FOR REFERENCE. ELECTRICAL WORK LIMITED TO ELECTRICAL DISTRIBUTION FROM COMED VAULT TO UPPER FLOORS. MECHANICAL, PLUMBING AND FIRE PROTECTION WORK TO BE PERMITTED UNDER PHASE 3. EQUIPMENT TO BE PERMITTED UNDER PHASE 3. PHASE 1 DEMOLITION ONLY WORK PERMITTED UNDER 101083036. IA CONSTRUCTION; B-BUSINESS CONSULTANT REVIEWER: V3 COMPANIES OF IL"}}, {"type": "Feature", "geometry": {"type": "Point", "coordinates": [-97.70983363, 30.32198016]}, "properties": {"jurisdiction": "Austin", "state": "TX", "permit_number": "2026-036762 EP", "best_date": "2026-05-20", "valuation": null, "dc_tier": "confirmed", "dc_score": 60.0, "dc_operator": null, "dc_role": "new_build", "description": "ePlan: Commercial Expedited Review - [APPROVED] New Construction of Exterior Pad for Modular Data Center Foundation."}}, {"type": "Feature", "geometry": {"type": "Point", "coordinates": [-97.70983363, 30.32198016]}, "properties": {"jurisdiction": "Austin", "state": "TX", "permit_number": "2026-036762 BP", "best_date": "2026-03-27", "valuation": 1000000.0, "dc_tier": "confirmed", "dc_score": 60.0, "dc_operator": null, "dc_role": "new_build", "description": "ePlan: Commercial Expedited Review - [APPROVED] New Construction of Exterior Pad for Modular Data Center Foundation."}}, {"type": "Feature", "geometry": {"type": "Point", "coordinates": [-97.70983293, 30.32197904]}, "properties": {"jurisdiction": "Austin", "state": "TX", "permit_number": "2026-036762 BP", "best_date": "2026-03-27", "valuation": 1000000.0, "dc_tier": "confirmed", "dc_score": 60.0, "dc_operator": null, "dc_role": "new_build", "description": "ePlan: Commercial Expedited Review - [APPROVED] New Construction of Exterior Pad for Modular Data Center Foundation."}}, {"type": "Feature", "geometry": {"type": "Point", "coordinates": [-87.66597033174237, 41.84083718176195]}, "properties": {"jurisdiction": "Chicago", "state": "IL", "permit_number": "101074781", "best_date": "2025-12-11", "valuation": 700000.0, "dc_tier": "confirmed", "dc_score": 60.0, "dc_operator": null, "dc_role": "fitout", "description": "SPR 2019 CBRC: 1ST FLOOR INTERIOR AND EXTERIOR ALTERATIONS IN EXISTING 2-STORY DATA CENTER BUILDING ON THE 1ST FLOOR FOR ADDITIONAL COOLING IN PH1. SELECT DEMOLITION INTERIOR PARTION RENOVATION, STRUCTURAL, MECHANICAL AND ELECTRICAL WORK AS PER PLANS. (OCCUPANCY GROUP B; TYPE IIA CONSTRUCTION) (STRUCTURAL PEER REVIEW) **CERTIFIED PLANS CORRECTIONS: CONDITIONAL PERMIT SUBJECT TO FIELD INSPECTIONS **"}}, {"type": "Feature", "geometry": {"type": "Point", "coordinates": [-111.612275, 33.35516]}, "properties": {"jurisdiction": "Mesa", "state": "AZ", "permit_number": "PMT25-13993", "best_date": "2025-10-27", "valuation": 132179.2, "dc_tier": "confirmed", "dc_score": 60.0, "dc_operator": null, "dc_role": "fitout", "description": "Tenant improvement to create a 170 SF office within existing B occupancy office area in 235,550 SF, type II-B, group S-1 and B occupancy PH3/Bldg 7 Data Center Facility. Modification include new walls, doors, ceiling and lighting and associated mechanical and electrical scope. Deferred fire alarm. Results in CoC."}}, {"type": "Feature", "geometry": {"type": "Point", "coordinates": [-111.642492, 33.333498]}, "properties": {"jurisdiction": "Mesa", "state": "AZ", "permit_number": "PMT25-12302", "best_date": "2025-10-14", "valuation": 203178.93, "dc_tier": "confirmed", "dc_score": 60.0, "dc_operator": null, "dc_role": "new_build", "description": "New access control systems at parking lot gates and building multiple doors of new data center building. All doors are free egress. Approved with stipulations. See comments. Results in CoC."}}, {"type": "Feature", "geometry": {"type": "Point", "coordinates": [-111.608239, 33.292231]}, "properties": {"jurisdiction": "Mesa", "state": "AZ", "permit_number": "PMT25-07493", "best_date": "2025-09-17", "valuation": null, "dc_tier": "confirmed", "dc_score": 60.0, "dc_operator": null, "dc_role": "new_build", "description": "Phase2-Building1. Civil Improvement Plans for New Data Center Building on existing campus. REF: PMT24-15709 Phase1-Building2 and REF: PMT24-15751 for Phase1 - Site improvements. 2-INCH LANDSCAPE WATER METER INCLUDED IN PMT24-15709. NO WATER METER INCLUDED WITH THIS PERMIT."}}, {"type": "Feature", "geometry": {"type": "Point", "coordinates": [-97.69785156, 30.20979469]}, "properties": {"jurisdiction": "Austin", "state": "TX", "permit_number": "2025-090060 MP", "best_date": "2025-07-23", "valuation": null, "dc_tier": "confirmed", "dc_score": 60.0, "dc_operator": null, "dc_role": "fitout", "description": "THE INSTALL OF MECHANICAL ELECTRICAL AND PLUMBING ENGINEERING ASSOCIATED WITH ADDING A DATA CENTER INSIDE THE EXISTING CLIENTS FACILITY. ALL WALLS CEILINGS DOORS ARE EXISTING."}}, {"type": "Feature", "geometry": {"type": "Point", "coordinates": [-97.69785156, 30.20979469]}, "properties": {"jurisdiction": "Austin", "state": "TX", "permit_number": "2025-090060 EP", "best_date": "2025-07-22", "valuation": null, "dc_tier": "confirmed", "dc_score": 60.0, "dc_operator": null, "dc_role": "fitout", "description": "THE INSTALL OF MECHANICAL ELECTRICAL AND PLUMBING ENGINEERING ASSOCIATED WITH ADDING A DATA CENTER INSIDE THE EXISTING CLIENTS FACILITY. ALL WALLS CEILINGS DOORS ARE EXISTING."}}, {"type": "Feature", "geometry": {"type": "Point", "coordinates": [-97.69785156, 30.20979469]}, "properties": {"jurisdiction": "Austin", "state": "TX", "permit_number": "2025-090060 BP", "best_date": "2025-07-21", "valuation": null, "dc_tier": "confirmed", "dc_score": 60.0, "dc_operator": null, "dc_role": "fitout", "description": "THE INSTALL OF MECHANICAL ELECTRICAL AND PLUMBING ENGINEERING ASSOCIATED WITH ADDING A DATA CENTER INSIDE THE EXISTING CLIENTS FACILITY. ALL WALLS CEILINGS DOORS ARE EXISTING."}}, {"type": "Feature", "geometry": {"type": "Point", "coordinates": [-97.69785156, 30.20979469]}, "properties": {"jurisdiction": "Austin", "state": "TX", "permit_number": "2025-090060 BP", "best_date": "2025-07-21", "valuation": null, "dc_tier": "confirmed", "dc_score": 60.0, "dc_operator": null, "dc_role": "fitout", "description": "THE INSTALL OF MECHANICAL ELECTRICAL AND PLUMBING ENGINEERING ASSOCIATED WITH ADDING A DATA CENTER INSIDE THE EXISTING CLIENTS FACILITY. ALL WALLS CEILINGS DOORS ARE EXISTING."}}, {"type": "Feature", "geometry": {"type": "Point", "coordinates": [-111.608239, 33.292231]}, "properties": {"jurisdiction": "Mesa", "state": "AZ", "permit_number": "PMT24-15751", "best_date": "2025-04-09", "valuation": null, "dc_tier": "confirmed", "dc_score": 60.0, "dc_operator": null, "dc_role": "new_build", "description": "SITE IMPROVEMENTS FOR NEW DATA CENTER BUILDING REF PMT24-15709. DEFERRED ELECTRICAL VEHICLE GATES. DOMESTIC WATER METERS UNDER PMT24-15709. 2-INCH LANDSCAPE WATER METER INCLUDED IN PMT24-15709."}}, {"type": "Feature", "geometry": {"type": "Point", "coordinates": [-111.652901, 33.354696]}, "properties": {"jurisdiction": "Mesa", "state": "AZ", "permit_number": "PMT23-19122", "best_date": "2025-02-23", "valuation": null, "dc_tier": "confirmed", "dc_score": 60.0, "dc_operator": null, "dc_role": "other", "description": "Offsite improvement of Hawes Road as required to support the construction of private data center project."}}, {"type": "Feature", "geometry": {"type": "Point", "coordinates": [-87.66597033174237, 41.84083718176195]}, "properties": {"jurisdiction": "Chicago", "state": "IL", "permit_number": "B200410967", "best_date": "2025-01-17", "valuation": 1349333.0, "dc_tier": "confirmed", "dc_score": 60.0, "dc_operator": null, "dc_role": "equipment", "description": "LINE VOLTAGE ELECTRICAL WORK. ADD 284 CIRCUITS TO EXISTING 6014 AMP SERVICE DISCONNECTING MEANS. RECEPTACLE OUTLETS: 284 . LIGHTING OUTLETS: 0. SPECIFIC LOCATION: DATA CENTER RACKS."}}, {"type": "Feature", "geometry": {"type": "Point", "coordinates": [-87.64070114060304, 41.86262022335638]}, "properties": {"jurisdiction": "Chicago", "state": "IL", "permit_number": "101060973", "best_date": "2024-12-04", "valuation": 36000.0, "dc_tier": "confirmed", "dc_score": 60.0, "dc_operator": null, "dc_role": "new_build", "description": "DDS / 2019 CBRC: REVISION TO PERMIT 101003044 FOR MODIFICATIONS TO ELECTRICAL EQUIPMENT VOLTAGE AND ASSOCIATED CABLING IN AN EXISTING FOUR (4) STORY DATA CENTER AS PER PLANS. (OCCUPANCY GROUP: B / TYPE 1B CONSTRUCTION). CONSULTANT REVIEWER: GLOBETROTTERS ENGINEERING"}}, {"type": "Feature", "geometry": {"type": "Point", "coordinates": [-87.61862204741678, 41.85311814898232]}, "properties": {"jurisdiction": "Chicago", "state": "IL", "permit_number": "101052519", "best_date": "2024-10-28", "valuation": 9899877.0, "dc_tier": "confirmed", "dc_score": 60.0, "dc_operator": null, "dc_role": "fitout", "description": "SPR 2019 CBRC: INTERIOR ALTERATIONS TO 3RD FLOOR DATA CENTER SUITES 355 AND 365. WORK TO INCLUDE NEW PARTITIONS, MECHANICAL, ELECTRICAL AND PLUMBING AS PER PLANS. (1B CONSTRUCTION. B-BUSINESS)"}}, {"type": "Feature", "geometry": {"type": "Point", "coordinates": [-87.64070114060304, 41.86262022335638]}, "properties": {"jurisdiction": "Chicago", "state": "IL", "permit_number": "101048325", "best_date": "2024-07-22", "valuation": 209300.0, "dc_tier": "confirmed", "dc_score": 60.0, "dc_operator": null, "dc_role": "fitout", "description": "(DIRECT DEVELOPER SERVICES / 2019 CBRC) REVISION TO PERMIT 101003044 FOR LAYOUT MODIFICATIONS ON LEVELS 2 AND 3 TO INCLUDE STRUCTURAL WORK IN AN EXISTING FOUR (4) STORY DATA CENTER AS PER PLANS. (OCCUPANCY CLASSIFICATION: B / CONSTRUCTION CLASSIFICATION: 1B) CONSULTANT REVIEWER:GLOBETROTTERS ENGINEERING"}}, {"type": "Feature", "geometry": {"type": "Point", "coordinates": [-87.61862204741678, 41.85311814898232]}, "properties": {"jurisdiction": "Chicago", "state": "IL", "permit_number": "101046727", "best_date": "2024-05-09", "valuation": 323985.0, "dc_tier": "confirmed", "dc_score": 60.0, "dc_operator": null, "dc_role": "fitout", "description": "SPR 2019 CBRC: INTERIOR DEMOLITION OF NON LOAD BEARING PARTITIONS AND CEILING, REMOVE UNDERFLOOR, REMOVE ELECTRICAL AND MECHANICAL EQUIPMENT IN EXISTING 3RD FLOOR DATA CENTER OFFICE AS PER PLANS. (1B CONSTRUCTION. B-BUSINESS)**CONDITIONAL PERMIT SUBJECT TO FIELD INSPECTIONS)"}}, {"type": "Feature", "geometry": {"type": "Point", "coordinates": [-87.63946028564607, 41.870881086303676]}, "properties": {"jurisdiction": "Chicago", "state": "IL", "permit_number": "B200013344", "best_date": "2024-04-11", "valuation": 200000.0, "dc_tier": "confirmed", "dc_score": 60.0, "dc_operator": null, "dc_role": "expansion", "description": "SCOPE: NONSTRUCTURAL INTERIOR ALTERATION.LOCATIONS: 0 RESIDENTIAL UNIT(S), 1 NON-RESIDENTIAL UNIT(S), 7TH FLOOR. EXPANSION OF EXISTING 7TH FLOOR OFFICE SPACE IN AN EXISTING DATA CENTER. WORK TO INCLUDE MECHANICAL (VAVS) AND ELECTRICAL. NO STRUCTURAL WORK. INSTALL NEW FINISHES AND"}}, {"type": "Feature", "geometry": {"type": "Point", "coordinates": [-87.63946028564607, 41.870881086303676]}, "properties": {"jurisdiction": "Chicago", "state": "IL", "permit_number": "B101044630", "best_date": "2024-03-11", "valuation": 650000.0, "dc_tier": "confirmed", "dc_score": 60.0, "dc_operator": null, "dc_role": "other", "description": "**FIRE ALARM PERMIT**INSTALLATION OF A PRE-ACTION SYSTEM SERVING BSMT, 1ST, 2ND, 3RD, 4TH, AND 7TH FLOORS OF A HIGH-RISE CLASS-E BUSINESS BUILDING. DATA CENTER SHALL BE PROTECTED WITH VESDA SAMPLING DETECTION."}}, {"type": "Feature", "geometry": {"type": "Point", "coordinates": [-111.618781, 33.344193]}, "properties": {"jurisdiction": "Mesa", "state": "AZ", "permit_number": "PMT23-18893", "best_date": "2024-02-13", "valuation": 9000000.0, "dc_tier": "confirmed", "dc_score": 60.0, "dc_operator": null, "dc_role": "new_build", "description": "**EXPEDITE**Civil/Landscape permit set for review prior to requesting an at-risk grating permit to support the future construction of a new data center. New 1\" landscape meter. Two 2\" domestic meters under related building permit PMT23-20558."}}, {"type": "Feature", "geometry": {"type": "Point", "coordinates": [-97.68514379, 30.34055467]}, "properties": {"jurisdiction": "Austin", "state": "TX", "permit_number": "2024-010770 EP", "best_date": "2024-02-12", "valuation": null, "dc_tier": "confirmed", "dc_score": 60.0, "dc_operator": null, "dc_role": "fitout", "description": "Upgrade dual feed going to Home Depot Data Center"}}, {"type": "Feature", "geometry": {"type": "Point", "coordinates": [-97.68514379, 30.34055467]}, "properties": {"jurisdiction": "Austin", "state": "TX", "permit_number": "2024-010770 BP", "best_date": "2024-02-12", "valuation": null, "dc_tier": "confirmed", "dc_score": 60.0, "dc_operator": null, "dc_role": "fitout", "description": "Upgrade dual feed going to Home Depot Data Center"}}, {"type": "Feature", "geometry": {"type": "Point", "coordinates": [-97.68514379, 30.34055467]}, "properties": {"jurisdiction": "Austin", "state": "TX", "permit_number": "2024-010770 BP", "best_date": "2024-02-12", "valuation": null, "dc_tier": "confirmed", "dc_score": 60.0, "dc_operator": null, "dc_role": "fitout", "description": "Upgrade dual feed going to Home Depot Data Center"}}, {"type": "Feature", "geometry": {"type": "Point", "coordinates": [-97.71250526, 30.19899507]}, "properties": {"jurisdiction": "Austin", "state": "TX", "permit_number": "2024-004218 BP", "best_date": "2024-01-17", "valuation": null, "dc_tier": "confirmed", "dc_score": 60.0, "dc_operator": null, "dc_role": "fitout", "description": "THE PROJECT IS A TENANT IMPROVEMENT OF AN EXISTING BLDG TO ADD ADDITIONAL POWER AND COOLING CAPACITY OF THE FACILITY. NEW MECHANICAL AND ECTRICAL EQUIPMENT WILL BE ADDED TO PROVIDE SUPPORT OF NEW EQUIPMENT FOR POD 2 DATA CENTER AREA."}}, {"type": "Feature", "geometry": {"type": "Point", "coordinates": [-87.62431388722874, 41.88463624920333]}, "properties": {"jurisdiction": "Chicago", "state": "IL", "permit_number": "101032108", "best_date": "2024-01-16", "valuation": 390000.0, "dc_tier": "confirmed", "dc_score": 60.0, "dc_operator": null, "dc_role": "fitout", "description": "SELF-CERT 2019 CBRC: NON-STRUCTURAL INTERIOR DEMOLITION, INCLUDING REMOVAL OF MEP SYSTEMS, IN EXISTING OFFICE BUILDING ON THE 2ND, 3RD FLOORS, AND BASEMENT FOR EXISTING SINGLE DATA CENTER TENANT AS PER PLANS. (OCCUPANCY GROUP B; TYPE 1A CONSTRUCTION)"}}, {"type": "Feature", "geometry": {"type": "Point", "coordinates": [-87.63344780864057, 41.87296747271569]}, "properties": {"jurisdiction": "Chicago", "state": "IL", "permit_number": "B101006871", "best_date": "2023-10-18", "valuation": 140000.0, "dc_tier": "confirmed", "dc_score": 60.0, "dc_operator": null, "dc_role": "other", "description": "**FIRE ALARM PERMIT**INSTALLATION OF FIRE ALARM SYSTEM IN DATA CENTER ON 9TH FLOOR. CONNECTION TO EXISTING APPROVED HIGH-RISE FIRE ALARM & VOICE SYSTEM."}}, {"type": "Feature", "geometry": {"type": "Point", "coordinates": [-87.61862204741678, 41.85311814898232]}, "properties": {"jurisdiction": "Chicago", "state": "IL", "permit_number": "101022776", "best_date": "2023-10-17", "valuation": 300000.0, "dc_tier": "confirmed", "dc_score": 60.0, "dc_operator": null, "dc_role": "fitout", "description": "SPR 2019 CBRC: INTERIOR DEMO OF PARTITIONS, MECHANICAL PIPING, ELECTRICAL (ENTIRE FLOOR). NEW WORK TO INCLUDE NEW PARTITIONS, DOORS, MECHANICAL PIPING AT 3RD FLOOR TELECOM ROOM CONVERTING TO INACTIVE STORAGE AT EXISTING DATA CENTER; ELECTRICAL WORK THROUGHOUT THE 3RD FLOOR DATA CENTER. 1B CONSTRUCTION. B-BUSINESS (NO PLUMBING WORK UNDER THIS PERMIT.)"}}, {"type": "Feature", "geometry": {"type": "Point", "coordinates": [-97.80194978, 30.48655197]}, "properties": {"jurisdiction": "Austin", "state": "TX", "permit_number": "2023-036314 BP", "best_date": "2023-10-13", "valuation": null, "dc_tier": "confirmed", "dc_score": 60.0, "dc_operator": null, "dc_role": "fitout", "description": "Electrical Connections for UPS and Data Center"}}, {"type": "Feature", "geometry": {"type": "Point", "coordinates": [-97.801951, 30.48655122]}, "properties": {"jurisdiction": "Austin", "state": "TX", "permit_number": "2023-036314 BP", "best_date": "2023-10-13", "valuation": null, "dc_tier": "confirmed", "dc_score": 60.0, "dc_operator": null, "dc_role": "fitout", "description": "Electrical Connections for UPS and Data Center"}}, {"type": "Feature", "geometry": {"type": "Point", "coordinates": [-97.69785156, 30.20979469]}, "properties": {"jurisdiction": "Austin", "state": "TX", "permit_number": "2022-072978 BP", "best_date": "2023-08-30", "valuation": null, "dc_tier": "confirmed", "dc_score": 60.0, "dc_operator": null, "dc_role": "fitout", "description": "Remodel existing data center and admin office areas"}}, {"type": "Feature", "geometry": {"type": "Point", "coordinates": [-97.69785156, 30.20979469]}, "properties": {"jurisdiction": "Austin", "state": "TX", "permit_number": "2022-072978 BP", "best_date": "2023-08-30", "valuation": null, "dc_tier": "confirmed", "dc_score": 60.0, "dc_operator": null, "dc_role": "fitout", "description": "Remodel existing data center and admin office areas"}}, {"type": "Feature", "geometry": {"type": "Point", "coordinates": [-118.3542, 34.06227]}, "properties": {"jurisdiction": "Los Angeles", "state": "CA", "permit_number": null, "best_date": "2023-07-10", "valuation": 2000000.0, "dc_tier": "confirmed", "dc_score": 60.0, "dc_operator": null, "dc_role": "new_build", "description": "Eplan. Interior tenant improvement on ground floor of existing office building, including demolition of existing walls and doors and construction of a new data center (approximately 1,741 SF).\"COMPLY WITH DEPARTMENT ORDER effective date 06/23/2014. PERMIT WILL EXPIRE 30 DAYS FROM ISSUANCE DATE\""}}, {"type": "Feature", "geometry": {"type": "Point", "coordinates": [-97.71250526, 30.19899507]}, "properties": {"jurisdiction": "Austin", "state": "TX", "permit_number": "2023-075434 BP", "best_date": "2023-06-15", "valuation": null, "dc_tier": "confirmed", "dc_score": 60.0, "dc_operator": null, "dc_role": "fitout", "description": "Interior Fit Out within an existing data center building. This is a finish out for previously approved and finaled 2022-173777 BP. This work is not in same area as any other open work in the building. Total Building is 280760 sqft."}}, {"type": "Feature", "geometry": {"type": "Point", "coordinates": [-87.63036910402188, 41.87237058768509]}, "properties": {"jurisdiction": "Chicago", "state": "IL", "permit_number": "101019278", "best_date": "2023-06-05", "valuation": null, "dc_tier": "confirmed", "dc_score": 60.0, "dc_operator": null, "dc_role": "other", "description": "INSTALL ONE TRANE 270 TON TEMPORARY CHILLER ON POLK STREET IN FRONT OF THE DATA BANK BUILDING SERVING THE DATA CENTER."}}, {"type": "Feature", "geometry": {"type": "Point", "coordinates": [-87.63946028564607, 41.870881086303676]}, "properties": {"jurisdiction": "Chicago", "state": "IL", "permit_number": "101008767", "best_date": "2023-04-25", "valuation": 200000.0, "dc_tier": "confirmed", "dc_score": 60.0, "dc_operator": null, "dc_role": "fitout", "description": "SPR 2019: INTERIOR DEMO TO THE BASEMENT, 1ST, 2ND, 3RD, 7TH FLOORS AND REMOVAL OF EQUIPMENT AND DUNNAGE TO THE ROOF OF DATA CENTER AS PER PLANS. (OCCUPANCY E / CONSTRUCTION TYPE 1A)"}}, {"type": "Feature", "geometry": {"type": "Point", "coordinates": [-87.63946028564607, 41.870881086303676]}, "properties": {"jurisdiction": "Chicago", "state": "IL", "permit_number": "B101013826", "best_date": "2023-04-21", "valuation": 4500000.0, "dc_tier": "confirmed", "dc_score": 60.0, "dc_operator": null, "dc_role": "other", "description": "REPURPOSE 2000 CIRCUITS IN THE EXISTING DATA CENTER ON THE 4TH FLOOR. JOB# 2750003"}}, {"type": "Feature", "geometry": {"type": "Point", "coordinates": [-97.80194978, 30.48655197]}, "properties": {"jurisdiction": "Austin", "state": "TX", "permit_number": "2023-036314 EP", "best_date": "2023-03-27", "valuation": null, "dc_tier": "confirmed", "dc_score": 60.0, "dc_operator": null, "dc_role": "fitout", "description": "Electrical Connections for UPS and Data Center"}}, {"type": "Feature", "geometry": {"type": "Point", "coordinates": [-87.61862204741678, 41.85311814898232]}, "properties": {"jurisdiction": "Chicago", "state": "IL", "permit_number": "100992862", "best_date": "2023-02-10", "valuation": 450000.0, "dc_tier": "confirmed", "dc_score": 60.0, "dc_operator": null, "dc_role": "fitout", "description": "\u00bf2019 SPR: INFILL EXISTING SHAFTS ON THE 2ND, 4TH, 6TH, AND 8TH FLOORS OF AN EXISTING DATA CENTER AS PER PLANS. STRUCTURAL PEER REVIEW INCLUDED. NO MEP WORK. (CONSTRUCTION TYPE: 1B / OCCUPANCY TYPE: BUSINESS)"}}, {"type": "Feature", "geometry": {"type": "Point", "coordinates": [-118.41786, 34.06095]}, "properties": {"jurisdiction": "Los Angeles", "state": "CA", "permit_number": null, "best_date": "2023-02-08", "valuation": 50000.0, "dc_tier": "confirmed", "dc_score": 60.0, "dc_operator": null, "dc_role": "fitout", "description": "ePlan Tenant improvement to convert existing storage room at Garage level into data center"}}, {"type": "Feature", "geometry": {"type": "Point", "coordinates": [-87.63946028564607, 41.870881086303676]}, "properties": {"jurisdiction": "Chicago", "state": "IL", "permit_number": "101001319", "best_date": "2023-02-03", "valuation": 40000.0, "dc_tier": "confirmed", "dc_score": 60.0, "dc_operator": null, "dc_role": "fitout", "description": "SC 2019 CBRC: INTERIOR ALTERATIONS TO EXISTING STORAGE AREA IN THE 4TH FLOOR OF AN EXISTING DATA CENTER AS PER PLANS. (OCCUPANCY E / CONSTRUCTION TYPE 3B)"}}, {"type": "Feature", "geometry": {"type": "Point", "coordinates": [-87.63344780864057, 41.87296747271569]}, "properties": {"jurisdiction": "Chicago", "state": "IL", "permit_number": "100978838", "best_date": "2023-01-09", "valuation": 8700000.0, "dc_tier": "confirmed", "dc_score": 60.0, "dc_operator": null, "dc_role": "fitout", "description": "DDS 2019 CBRC: INTERIOR ALTERATIONS TO 9TH FLOOR BUSINESS DATA CENTER TO INCLUDE DEMO, NEW PARTITIONS, STRUCTURAL FRAMING, FIRE PROTECTION, MECHANICAL AND ELECTRICAL. MINOR STRUCTURAL WORK ON 10 AS PER PLANS. 1A CONSTRUCTION. S-1 OCCUPANCY. CONSULTANT REVIEWER: V3 COMPANIES OF IL"}}, {"type": "Feature", "geometry": {"type": "Point", "coordinates": [-87.66597033174237, 41.84083718176195]}, "properties": {"jurisdiction": "Chicago", "state": "IL", "permit_number": "100975202", "best_date": "2022-12-05", "valuation": 450000.0, "dc_tier": "confirmed", "dc_score": 60.0, "dc_operator": null, "dc_role": "fitout", "description": "DDS 2019 CBC: ALTERATIONS TO EXISTING 2-STORY DATA CENTER WEST LOADING DOCK TO INCLUDE NEW PLATFORM AND STAIR WITH STRUCTURAL SUPPORT, OVERHEAD DOOR, SITE EQUIPMENT PROTECTION, CIVIL GRADING AND PAVING, NEW LIGHTING AND SECURITY AS PER PLANS. (OCCUPANCY GROUP B; TYPE IIA CONSTRUCTION) CONSULTANT REVIEWER: THE CODE GROUP"}}, {"type": "Feature", "geometry": {"type": "Point", "coordinates": [-97.77372942, 30.48002712]}, "properties": {"jurisdiction": "Austin", "state": "TX", "permit_number": "2022-164968 BP", "best_date": "2022-11-14", "valuation": null, "dc_tier": "confirmed", "dc_score": 60.0, "dc_operator": null, "dc_role": "fitout", "description": "interior remodel existing data center/ admin office"}}, {"type": "Feature", "geometry": {"type": "Point", "coordinates": [-87.63969229307136, 41.8773721295901]}, "properties": {"jurisdiction": "Chicago", "state": "IL", "permit_number": "100989331", "best_date": "2022-10-27", "valuation": 1000000.0, "dc_tier": "confirmed", "dc_score": 60.0, "dc_operator": null, "dc_role": "new_build", "description": "SPR 2019 CBRC: INTERIOR ALTERATIONS TO AN EXISTING ROOM ON THE 3RD FLOOR FOR A NEW DATA CENTER, TO INCLUDE SELECTIVE DEMOLITION, AND NEW PARTITIONS, AS PER PLANS. (OCCUPANCY B; TYPE 1A CONSTRUCTION)"}}, {"type": "Feature", "geometry": {"type": "Point", "coordinates": [-97.69785156, 30.20979469]}, "properties": {"jurisdiction": "Austin", "state": "TX", "permit_number": "2022-072978 MP", "best_date": "2022-09-19", "valuation": null, "dc_tier": "confirmed", "dc_score": 60.0, "dc_operator": null, "dc_role": "fitout", "description": "Remodel existing data center and admin office areas"}}, {"type": "Feature", "geometry": {"type": "Point", "coordinates": [-118.39266, 34.1189]}, "properties": {"jurisdiction": "Los Angeles", "state": "CA", "permit_number": null, "best_date": "2025-04-25", "valuation": 75000.0, "dc_tier": "probable", "dc_score": 58.0, "dc_operator": null, "dc_role": "new_build", "description": "eplan:Verizon Wireless WTF Colocation on Existing Tower: 12 new panel antennas, four (4) per sector, 12 new remote radio units (RRUs), four (4) per sector; and Installation of one (1) microwave antenna, installation of three (3) OVPs, installation of one (1) GPS antenna; and, Installation of one (1) 30 kw AC stand-by generator with a 168 gallon diesel tank on a new concrete pad inside the new chain link enclosure."}}, {"type": "Feature", "geometry": {"type": "Point", "coordinates": [-111.618781, 33.344193]}, "properties": {"jurisdiction": "Mesa", "state": "AZ", "permit_number": "PMT23-19680", "best_date": "2023-12-05", "valuation": 29274434.1, "dc_tier": "probable", "dc_score": 58.0, "dc_operator": null, "dc_role": "other", "description": "New 230689 SF Foundation for a future data hall. Includes under-slab sewer and concrete encased electrical conduit and data lines"}}, {"type": "Feature", "geometry": {"type": "Point", "coordinates": [-111.626771, 33.355691]}, "properties": {"jurisdiction": "Mesa", "state": "AZ", "permit_number": "PMT25-21174", "best_date": "2025-12-09", "valuation": null, "dc_tier": "probable", "dc_score": 55.0, "dc_operator": "CyrusOne", "dc_role": "power_infrastructure", "description": "THIS IS A USE PERMIT FOR FOUR 12-FT X 60-FT TEMPORARY CONSTRUCTION FIELD OFFICE TRAILERS FOR USE BY CONTRACTORS WHILE A PERMANENT BUILDING IS UNDER CONSTRUCTION. THE CONSTRUCTION TRAILER MUST BE PLACED ONLY ON THE PROPERTY THAT IS BEING DEVELOPED AND OUT OF ALL BUILDING SETBACKS. NO PUBLIC USE IS PERMITTED. THIS USE PERMIT SHALL BE NON-TRANSFERABLE FROM ONE OWNER OR LESSEE TO ANOTHER AND SHALL EXPIRE ON DECEMBER 31, OF EACH YEAR UNLESS EARLIER REVOKED. ESTIMATED TIME OF CONSTRUCTION TRAILER REMOVAL IS MARCH 31,2026. NO SEWER OR WATER GENERATOR WILL RUN 24 HOURS, 7 DAYS A WEEK REF - BUILDING PERMIT NUMBER: PMT25-13240 PROJECT NAME: CyrusOne Mesa"}}, {"type": "Feature", "geometry": {"type": "Point", "coordinates": [-97.70342018, 30.35582408]}, "properties": {"jurisdiction": "Austin", "state": "TX", "permit_number": "2024-143672 EP", "best_date": "2025-05-23", "valuation": null, "dc_tier": "probable", "dc_score": 55.0, "dc_operator": null, "dc_role": "power_infrastructure", "description": "colocation of new carrier AT&T to existing Crown Castle telecommunications tower to include installation of antennas and associated equipment to tower and installation of ice bridge concrete pads and equipment platform for equipment cabinets and installation of 20KW diesel (54 gal tank) backup generator"}}, {"type": "Feature", "geometry": {"type": "Point", "coordinates": [-97.70342018, 30.35582408]}, "properties": {"jurisdiction": "Austin", "state": "TX", "permit_number": "2024-143672 BP", "best_date": "2025-03-07", "valuation": null, "dc_tier": "probable", "dc_score": 55.0, "dc_operator": null, "dc_role": "power_infrastructure", "description": "colocation of new carrier AT&T to existing Crown Castle telecommunications tower to include installation of antennas and associated equipment to tower and installation of ice bridge concrete pads and equipment platform for equipment cabinets and installation of 20KW diesel (54 gal tank) backup generator"}}, {"type": "Feature", "geometry": {"type": "Point", "coordinates": [-97.73545859, 30.4359844]}, "properties": {"jurisdiction": "Austin", "state": "TX", "permit_number": "2025-119435 BP", "best_date": "2025-10-09", "valuation": null, "dc_tier": "probable", "dc_score": 50.0, "dc_operator": null, "dc_role": "fitout", "description": "ePlan Review: Remodel Data Hall -1st Floor"}}, {"type": "Feature", "geometry": {"type": "Point", "coordinates": [-87.640701140603, 41.8626202233564]}, "properties": {"jurisdiction": "Chicago", "state": "IL", "permit_number": "B101052909", "best_date": "2024-07-18", "valuation": 100000.0, "dc_tier": "probable", "dc_score": 50.0, "dc_operator": null, "dc_role": "other", "description": "**FIRE ALARM PERMIT**INSTALLATION OF ADDRESSABLE AIR SAMPLING SMOKE DETECTION IN THE 1ST FLOOR ELECTRICAL ROOM. TIE TO EXISTING BUILDING NOTIFIER NFS2-3030 FIRE ALARM SYSTEM. BUILD-OUT OF THIRD FLOOR DATA HALL 300, CORRIDOR & OFFICE SPACE. ELEVATOR RECALL IS EXISTING AND IS NOT PART OF THIS SCOPE"}}, {"type": "Feature", "geometry": {"type": "Point", "coordinates": [-97.71250526, 30.19899507]}, "properties": {"jurisdiction": "Austin", "state": "TX", "permit_number": "2022-071936 BP", "best_date": "2024-03-12", "valuation": null, "dc_tier": "probable", "dc_score": 50.0, "dc_operator": null, "dc_role": "fitout", "description": "Scope includes interior fir-outs of office space an alteration to an existing Data Hall space and equipment upgrades"}}, {"type": "Feature", "geometry": {"type": "Point", "coordinates": [-111.618781, 33.344193]}, "properties": {"jurisdiction": "Mesa", "state": "AZ", "permit_number": "PMT23-19679", "best_date": "2024-01-03", "valuation": 2000000.0, "dc_tier": "probable", "dc_score": 50.0, "dc_operator": null, "dc_role": "fitout", "description": "Building 3. Build out of IDF room within data hall on the second floor. No change of occupancy. DEFERRED FIRE SPRINKLERS. DEFERRED FIRE ALARM."}}, {"type": "Feature", "geometry": {"type": "Point", "coordinates": [-97.69314741, 30.25898146]}, "properties": {"jurisdiction": "Austin", "state": "TX", "permit_number": "2026-011143 BP", "best_date": "2026-02-18", "valuation": null, "dc_tier": "probable", "dc_score": 45.0, "dc_operator": null, "dc_role": "fitout", "description": "QT Upgrade AT&T equipment on an existing colocation self support tower."}}, {"type": "Feature", "geometry": {"type": "Point", "coordinates": [-97.78400928, 30.29316806]}, "properties": {"jurisdiction": "Austin", "state": "TX", "permit_number": "2025-157796 BP", "best_date": "2025-12-15", "valuation": null, "dc_tier": "probable", "dc_score": 45.0, "dc_operator": null, "dc_role": "fitout", "description": "QT - Upgrade AT&T equipment on an existing colocation self support cell phone tower."}}, {"type": "Feature", "geometry": {"type": "Point", "coordinates": [-97.78400928, 30.29316806]}, "properties": {"jurisdiction": "Austin", "state": "TX", "permit_number": "2025-157796 BP", "best_date": "2025-12-15", "valuation": null, "dc_tier": "probable", "dc_score": 45.0, "dc_operator": null, "dc_role": "fitout", "description": "QT - Upgrade AT&T equipment on an existing colocation self support cell phone tower."}}, {"type": "Feature", "geometry": {"type": "Point", "coordinates": [-97.67119625, 30.33625029]}, "properties": {"jurisdiction": "Austin", "state": "TX", "permit_number": "2025-150926 BP", "best_date": "2025-12-08", "valuation": 35000.0, "dc_tier": "probable", "dc_score": 45.0, "dc_operator": null, "dc_role": "other", "description": "Upgrade AT&T equipment on an existing colocation rooftop"}}, {"type": "Feature", "geometry": {"type": "Point", "coordinates": [-97.67119625, 30.33625029]}, "properties": {"jurisdiction": "Austin", "state": "TX", "permit_number": "2025-150926 BP", "best_date": "2025-12-08", "valuation": 35000.0, "dc_tier": "probable", "dc_score": 45.0, "dc_operator": null, "dc_role": "other", "description": "Upgrade AT&T equipment on an existing colocation rooftop"}}, {"type": "Feature", "geometry": {"type": "Point", "coordinates": [-97.83278071, 30.23363088]}, "properties": {"jurisdiction": "Austin", "state": "TX", "permit_number": "2025-134366 BP", "best_date": "2025-10-22", "valuation": null, "dc_tier": "probable", "dc_score": 45.0, "dc_operator": null, "dc_role": "fitout", "description": "Upgrade ATT equipment on an existing colocation self support tower"}}, {"type": "Feature", "geometry": {"type": "Point", "coordinates": [-97.83278071, 30.23363088]}, "properties": {"jurisdiction": "Austin", "state": "TX", "permit_number": "2025-134366 BP", "best_date": "2025-10-22", "valuation": null, "dc_tier": "probable", "dc_score": 45.0, "dc_operator": null, "dc_role": "other", "description": "Upgrade ATT equipment on an existing colocation self support tower"}}, {"type": "Feature", "geometry": {"type": "Point", "coordinates": [-97.79989856, 30.25205804]}, "properties": {"jurisdiction": "Austin", "state": "TX", "permit_number": "2025-106488 BP", "best_date": "2025-09-04", "valuation": 35000.0, "dc_tier": "probable", "dc_score": 45.0, "dc_operator": null, "dc_role": "other", "description": "Upgrade AT&T cell phone equipment on an existing colocation rooftop."}}, {"type": "Feature", "geometry": {"type": "Point", "coordinates": [-97.79989856, 30.25205804]}, "properties": {"jurisdiction": "Austin", "state": "TX", "permit_number": "2025-106488 BP", "best_date": "2025-09-04", "valuation": 35000.0, "dc_tier": "probable", "dc_score": 45.0, "dc_operator": null, "dc_role": "other", "description": "Upgrade AT&T cell phone equipment on an existing colocation rooftop."}}, {"type": "Feature", "geometry": {"type": "Point", "coordinates": [-97.70342018, 30.35582408]}, "properties": {"jurisdiction": "Austin", "state": "TX", "permit_number": "2024-143672 BP", "best_date": "2025-03-07", "valuation": null, "dc_tier": "probable", "dc_score": 45.0, "dc_operator": null, "dc_role": "fitout", "description": "colocation of new carrier AT&T to existing Crown Castle telecommunications tower to include installation of antennas and associated equipment to tower and installation of ice bridge concrete pads and equipment platform for equipment cabinets and inst"}}, {"type": "Feature", "geometry": {"type": "Point", "coordinates": [-97.70695864, 30.31427528]}, "properties": {"jurisdiction": "Austin", "state": "TX", "permit_number": "2024-145451 BP", "best_date": "2024-11-07", "valuation": null, "dc_tier": "probable", "dc_score": 45.0, "dc_operator": null, "dc_role": "fitout", "description": "UPGRADE AT&T COMMUNICATIONS EQUIPMENT ON AN EXISTING COLOCATION ROOFTOP."}}, {"type": "Feature", "geometry": {"type": "Point", "coordinates": [-97.70695864, 30.31427528]}, "properties": {"jurisdiction": "Austin", "state": "TX", "permit_number": "2024-145451 BP", "best_date": "2024-11-07", "valuation": null, "dc_tier": "probable", "dc_score": 45.0, "dc_operator": null, "dc_role": "fitout", "description": "UPGRADE AT&T COMMUNICATIONS EQUIPMENT ON AN EXISTING COLOCATION ROOFTOP."}}, {"type": "Feature", "geometry": {"type": "Point", "coordinates": [-97.74244081, 30.28724636]}, "properties": {"jurisdiction": "Austin", "state": "TX", "permit_number": "2024-128539 BP", "best_date": "2024-09-24", "valuation": null, "dc_tier": "probable", "dc_score": 45.0, "dc_operator": null, "dc_role": "fitout", "description": "UPGRADE AT&T COMMUNICATIONS EQUIPMENT ON AN EXISTING COLOCATION ROOFTOP 2024 103535 DA - Approved"}}, {"type": "Feature", "geometry": {"type": "Point", "coordinates": [-97.74244081, 30.28724636]}, "properties": {"jurisdiction": "Austin", "state": "TX", "permit_number": "2024-128539 BP", "best_date": "2024-09-24", "valuation": null, "dc_tier": "probable", "dc_score": 45.0, "dc_operator": null, "dc_role": "fitout", "description": "UPGRADE AT&T COMMUNICATIONS EQUIPMENT ON AN EXISTING COLOCATION ROOFTOP 2024 103535 DA - Approved"}}, {"type": "Feature", "geometry": {"type": "Point", "coordinates": [-97.74281208, 30.274121]}, "properties": {"jurisdiction": "Austin", "state": "TX", "permit_number": "2024-128841 BP", "best_date": "2024-09-23", "valuation": null, "dc_tier": "probable", "dc_score": 45.0, "dc_operator": null, "dc_role": "fitout", "description": "UPGRADE AT&T COMMUNICATIONS EQUIPMENT ON AN EXISTING COLOCATION GARAGE ROOFTOP 2024 108652 DA - Approved"}}, {"type": "Feature", "geometry": {"type": "Point", "coordinates": [-97.74281208, 30.274121]}, "properties": {"jurisdiction": "Austin", "state": "TX", "permit_number": "2024-128841 BP", "best_date": "2024-09-23", "valuation": null, "dc_tier": "probable", "dc_score": 45.0, "dc_operator": null, "dc_role": "fitout", "description": "UPGRADE AT&T COMMUNICATIONS EQUIPMENT ON AN EXISTING COLOCATION GARAGE ROOFTOP 2024 108652 DA - Approved"}}, {"type": "Feature", "geometry": {"type": "Point", "coordinates": [-87.61156988394656, 41.892094136861786]}, "properties": {"jurisdiction": "Chicago", "state": "IL", "permit_number": "B200021125", "best_date": "2024-07-16", "valuation": 50000.0, "dc_tier": "probable", "dc_score": 45.0, "dc_operator": null, "dc_role": "fitout", "description": "ALTERATION OF EXISTING COMMUNICATION EQUIPMENT. ALTERATION OF 2 BOXES AND EQUIPMENT ON 1 TOWERS / STRUCTURES. LOCATION: ROOF TOP COLOCATION EXISTING ANTENNA SWAP."}}, {"type": "Feature", "geometry": {"type": "Point", "coordinates": [-97.66776522, 30.3732103]}, "properties": {"jurisdiction": "Austin", "state": "TX", "permit_number": "2024-059847 BP", "best_date": "2024-05-15", "valuation": null, "dc_tier": "probable", "dc_score": 45.0, "dc_operator": null, "dc_role": "expansion", "description": "Colocation of Antennas on Existing Cell Tower Addition of Ancillary Equipment Install Back Up Generator with Leased Area"}}, {"type": "Feature", "geometry": {"type": "Point", "coordinates": [-87.63946028564607, 41.870881086303676]}, "properties": {"jurisdiction": "Chicago", "state": "IL", "permit_number": "B101031477", "best_date": "2023-09-13", "valuation": 1.0, "dc_tier": "probable", "dc_score": 45.0, "dc_operator": null, "dc_role": "other", "description": "ELECTRICAL MAINTENANCE FOR FLOORS OCCUPIED BY SERVER FARM FOR THE MONTH OF OCTOBER, 2023."}}, {"type": "Feature", "geometry": {"type": "Point", "coordinates": [-87.63946028564607, 41.870881086303676]}, "properties": {"jurisdiction": "Chicago", "state": "IL", "permit_number": "B101031480", "best_date": "2023-09-13", "valuation": 1.0, "dc_tier": "probable", "dc_score": 45.0, "dc_operator": null, "dc_role": "other", "description": "ELECTRICAL MAINTENANCE FOR FLOORS OCCUPIED BY SERVER FARM FOR THE MONTH OF NOVEMBER, 2023."}}, {"type": "Feature", "geometry": {"type": "Point", "coordinates": [-87.63946028564607, 41.870881086303676]}, "properties": {"jurisdiction": "Chicago", "state": "IL", "permit_number": "B101031486", "best_date": "2023-09-13", "valuation": 1.0, "dc_tier": "probable", "dc_score": 45.0, "dc_operator": null, "dc_role": "other", "description": "ELECTRICAL MAINTENANCE FOR FLOORS OCCUPIED BY SERVER FARM FOR THE MONTH OF DECEMBER, 2023."}}, {"type": "Feature", "geometry": {"type": "Point", "coordinates": [-87.63947916671918, 41.87146035545103]}, "properties": {"jurisdiction": "Chicago", "state": "IL", "permit_number": "101028754", "best_date": "2023-08-28", "valuation": 3600.0, "dc_tier": "probable", "dc_score": 45.0, "dc_operator": null, "dc_role": "other", "description": "INSTALLATION OF (1) SET OF INTERNALLY ILLUMINATED CHANNEL LETTERS AND LOGO READING (LOGO) SERVER FARM"}}, {"type": "Feature", "geometry": {"type": "Point", "coordinates": [-87.63946028564607, 41.870881086303676]}, "properties": {"jurisdiction": "Chicago", "state": "IL", "permit_number": "B101021118", "best_date": "2023-06-20", "valuation": 1.0, "dc_tier": "probable", "dc_score": 45.0, "dc_operator": null, "dc_role": "other", "description": "ELECTRICAL MAINTENANCE FOR FLOORS OCCUPIED BY SERVER FARM FOR THE MONTH OF JULY, 2023."}}, {"type": "Feature", "geometry": {"type": "Point", "coordinates": [-87.63946028564607, 41.870881086303676]}, "properties": {"jurisdiction": "Chicago", "state": "IL", "permit_number": "B101021128", "best_date": "2023-06-20", "valuation": 1.0, "dc_tier": "probable", "dc_score": 45.0, "dc_operator": null, "dc_role": "other", "description": "ELECTRICAL MAINTENANCE FOR FLOORS OCCUPIED BY SERVER FARM FOR THE MONTH OF AUGUST, 2023."}}, {"type": "Feature", "geometry": {"type": "Point", "coordinates": [-87.63946028564607, 41.870881086303676]}, "properties": {"jurisdiction": "Chicago", "state": "IL", "permit_number": "B101021140", "best_date": "2023-06-20", "valuation": 1.0, "dc_tier": "probable", "dc_score": 45.0, "dc_operator": null, "dc_role": "other", "description": "ELECTRICAL MAINTENANCE FOR FLOORS OCCUPIED BY SERVER FARM FOR THE MONTH OF SEPTEMBER, 2023."}}, {"type": "Feature", "geometry": {"type": "Point", "coordinates": [-87.63946028564607, 41.870881086303676]}, "properties": {"jurisdiction": "Chicago", "state": "IL", "permit_number": "B101009363", "best_date": "2023-03-17", "valuation": 1.0, "dc_tier": "probable", "dc_score": 45.0, "dc_operator": null, "dc_role": "other", "description": "ELECTRICAL MAINTENANCE FOR FLOORS OCCUPIED BY SERVER FARM FOR THE MONTH OF APRIL, 2023."}}, {"type": "Feature", "geometry": {"type": "Point", "coordinates": [-87.63946028564607, 41.870881086303676]}, "properties": {"jurisdiction": "Chicago", "state": "IL", "permit_number": "B101009370", "best_date": "2023-03-17", "valuation": 1.0, "dc_tier": "probable", "dc_score": 45.0, "dc_operator": null, "dc_role": "other", "description": "ELECTRICAL MAINTENANCE FOR FLOORS OCCUPIED BY SERVER FARM FOR THE MONTH OF MAY, 2023."}}, {"type": "Feature", "geometry": {"type": "Point", "coordinates": [-87.63946028564607, 41.870881086303676]}, "properties": {"jurisdiction": "Chicago", "state": "IL", "permit_number": "B101009387", "best_date": "2023-03-17", "valuation": 1.0, "dc_tier": "probable", "dc_score": 45.0, "dc_operator": null, "dc_role": "other", "description": "ELECTRICAL MAINTENANCE FOR FLOORS OCCUPIED BY SERVER FARM FOR THE MONTH OF JUNE, 2023"}}, {"type": "Feature", "geometry": {"type": "Point", "coordinates": [-87.63946028564607, 41.870881086303676]}, "properties": {"jurisdiction": "Chicago", "state": "IL", "permit_number": "B101001422", "best_date": "2023-01-05", "valuation": 1.0, "dc_tier": "probable", "dc_score": 45.0, "dc_operator": null, "dc_role": "other", "description": "ELECTRICAL MAINTENANCE FOR FLOORS OCCUPIED BY SERVER FARM FOR THE MONTH OF JANUARY, 2023."}}, {"type": "Feature", "geometry": {"type": "Point", "coordinates": [-87.63946028564607, 41.870881086303676]}, "properties": {"jurisdiction": "Chicago", "state": "IL", "permit_number": "B101001428", "best_date": "2023-01-05", "valuation": 1.0, "dc_tier": "probable", "dc_score": 45.0, "dc_operator": null, "dc_role": "other", "description": "ELECTRICAL MAINTENANCE FOR FLOORS OCCUPIED BY SERVER FARM FOR THE MONTH OF FEBRUARY, 2023."}}, {"type": "Feature", "geometry": {"type": "Point", "coordinates": [-87.63946028564607, 41.870881086303676]}, "properties": {"jurisdiction": "Chicago", "state": "IL", "permit_number": "B101001430", "best_date": "2023-01-05", "valuation": 1.0, "dc_tier": "probable", "dc_score": 45.0, "dc_operator": null, "dc_role": "other", "description": "ELECTRICAL MAINTENANCE FOR FLOORS OCCUPIED BY SERVER FARM FOR THE MONTH OF MARCH, 2023"}}, {"type": "Feature", "geometry": {"type": "Point", "coordinates": [-97.79988689, 30.32325776]}, "properties": {"jurisdiction": "Austin", "state": "TX", "permit_number": "2022-146921 EP", "best_date": "2022-10-14", "valuation": null, "dc_tier": "probable", "dc_score": 45.0, "dc_operator": null, "dc_role": "expansion", "description": "NEW SERVICE FOR ADDITION OF T-MOBILE COLOCATION TO EXISTING TOWER"}}, {"type": "Feature", "geometry": {"type": "Point", "coordinates": [-87.63946028564607, 41.870881086303676]}, "properties": {"jurisdiction": "Chicago", "state": "IL", "permit_number": "B100990240", "best_date": "2022-09-27", "valuation": 1.0, "dc_tier": "probable", "dc_score": 45.0, "dc_operator": null, "dc_role": "other", "description": "ELECTRICAL MAINTENANCE FOR FLOORS OCCUPIED BY SERVER FARM FOR THE MONTH OF DECEMBER, 2022."}}]}